NORAD_CAT_ID,OBJECT_NAME,OBJECT_TYPE,EPOCH,MEAN_MOTION,ECCENTRICITY,INCLINATION,RA_OF_ASC_NODE,ARG_OF_PERICENTER,MEAN_ANOMALY,BSTAR,MEAN_MOTION_DOT,MEAN_MOTION_DDOT,TLE_LINE0,TLE_LINE1,TLE_LINE2,SEMIMAJOR_AXIS,PERIOD,APOGEE,PERIGEE,DECAYED
49724.0,STARLINK-3219,PAYLOAD,2024-04-03 03:07:18,15.08838832,0.0001683,53.2167,76.7203,89.7753,270.3432,-0.00016663,-2.939e-05,0.0,0 STARLINK-3219,1 49724U 21115A   24094.13007694 -.00002939  00000-0 -16663-3 0  9995,2 49724  53.2167  76.7203 0001683  89.7753 270.3432 15.08838832130128,6917.884,95.438,540.913,538.585,0.0
49724.0,STARLINK-3219,PAYLOAD,2024-04-03 07:53:28,15.08828621,0.0001834,53.2186,75.8296,99.0694,261.0505,8.5723e-05,1.076e-05,0.0,0 STARLINK-3219,1 49724U 21115A   24094.32880782  .00001076  00000-0  85723-4 0  9996,2 49724  53.2186  75.8296 0001834  99.0694 261.0505 15.08828621130153,6917.915,95.438,541.049,538.511,0.0
49724.0,STARLINK-3219,PAYLOAD,2024-04-03 15:50:23,15.08846421,0.0001529,53.2177,74.3407,89.9357,270.181,-1.8321e-06,-3.17e-06,0.0,0 STARLINK-3219,1 49724U 21115A   24094.65999634 -.00000317  00000-0 -18321-5 0  9999,2 49724  53.2177  74.3407 0001529  89.9357 270.1810 15.08846421130200,6917.861,95.437,540.784,538.668,0.0
49724.0,STARLINK-3219,PAYLOAD,2024-04-03 22:11:56,15.08841453,0.0001521,53.2175,73.1516,88.8623,271.2543,7.7374e-05,9.44e-06,0.0,0 STARLINK-3219,1 49724U 21115A   24094.92495667  .00000944  00000-0  77374-4 0  9992,2 49724  53.2175  73.1516 0001521  88.8623 271.2543 15.08841453129137,6917.876,95.437,540.793,538.689,0.0
49724.0,STARLINK-3219,PAYLOAD,2024-04-04 07:44:14,15.08844637,0.0001484,53.2174,71.3676,89.111,271.0052,0.00012013,1.625e-05,0.0,0 STARLINK-3219,1 49724U 21115A   24095.32239462  .00001625  00000-0  12013-3 0  9991,2 49724  53.2174  71.3676 0001484  89.1110 271.0052 15.08844637129192,6917.866,95.437,540.758,538.705,0.0
49724.0,STARLINK-3219,PAYLOAD,2024-04-04 15:41:10,15.08848098,0.0001469,53.2165,69.8806,87.9699,272.1462,0.00017936,2.568e-05,0.0,0 STARLINK-3219,1 49724U 21115A   24095.65359168  .00002568  00000-0  17936-3 0  9999,2 49724  53.2165  69.8806 0001469  87.9699 272.1462 15.08848098129248,6917.856,95.437,540.737,538.704,0.0
49724.0,STARLINK-3219,PAYLOAD,2024-04-05 04:24:15,15.08842326,0.0001549,53.2167,67.5031,86.4023,273.7147,0.00020971,3.051e-05,0.0,0 STARLINK-3219,1 49724U 21115A   24096.18351554  .00003051  00000-0  20971-3 0  9990,2 49724  53.2167  67.5031 0001549  86.4023 273.7147 15.08842326130437,6917.873,95.437,540.81,538.667,0.0
49724.0,STARLINK-3219,PAYLOAD,2024-04-05 07:35:01,15.0884525,0.0001498,53.2169,66.9086,85.4644,274.6519,0.00025087,3.707e-05,0.0,0 STARLINK-3219,1 49724U 21115A   24096.31599399  .00003707  00000-0  25087-3 0  9997,2 49724  53.2169  66.9086 0001498  85.4644 274.6519 15.08845250129343,6917.864,95.437,540.766,538.693,0.0
49724.0,STARLINK-3219,PAYLOAD,2024-04-05 15:31:57,15.08848279,0.000149,53.2166,65.4206,87.4199,272.6963,0.00020507,2.978e-05,0.0,0 STARLINK-3219,1 49724U 21115A   24096.64719117  .00002978  00000-0  20507-3 0  9996,2 49724  53.2166  65.4206 0001490  87.4199 272.6963 15.08848279129397,6917.855,95.437,540.751,538.689,0.0
49724.0,STARLINK-3219,PAYLOAD,2024-04-06 04:15:02,15.08836562,0.0001532,53.2173,63.041,96.6722,263.4444,6.6783e-06,-1.82e-06,0.0,0 STARLINK-3219,1 49724U 21115A   24097.17711648 -.00000182  00000-0  66783-5 0  9990,2 49724  53.2173  63.0410 0001532  96.6722 263.4444 15.08836562130584,6917.891,95.438,540.816,538.696,0.0
49724.0,STARLINK-3219,PAYLOAD,2024-04-06 07:25:49,15.08839765,0.000144,53.2184,62.4455,97.5712,262.5444,1.4591e-05,-5.6e-07,0.0,0 STARLINK-3219,1 49724U 21115A   24097.30959682 -.00000056  00000-0  14591-4 0  9996,2 49724  53.2184  62.4455 0001440  97.5712 262.5444 15.08839765129491,6917.881,95.438,540.742,538.75,0.0
49724.0,STARLINK-3219,PAYLOAD,2024-04-07 07:16:36,15.0883891,0.0001452,53.2176,57.9845,95.0893,265.0265,2.6926e-05,1.41e-06,0.0,0 STARLINK-3219,1 49724U 21115A   24098.30319693  .00000141  00000-0  26926-4 0  9998,2 49724  53.2176  57.9845 0001452  95.0893 265.0265 15.08838910130751,6917.884,95.438,540.753,538.744,0.0
49724.0,STARLINK-3219,PAYLOAD,2024-04-07 21:35:04,15.08836751,0.0001401,53.2177,55.3083,97.8314,262.2837,0.00015836,2.233e-05,0.0,0 STARLINK-3219,1 49724U 21115A   24098.89935914  .00002233  00000-0  15836-3 0  9993,2 49724  53.2177  55.3083 0001401  97.8314 262.2837 15.08836751129731,6917.89,95.438,540.725,538.786,0.0
49724.0,STARLINK-3219,PAYLOAD,2024-04-08 13:28:55,15.08847634,0.0001333,53.218,52.3359,93.7649,266.3496,0.00021283,3.102e-05,0.0,0 STARLINK-3219,1 49724U 21115A   24099.56175415  .00003102  00000-0  21283-3 0  9999,2 49724  53.2180  52.3359 0001333  93.7649 266.3496 15.08847634130941,6917.857,95.437,540.644,538.8,0.0
49724.0,STARLINK-3219,PAYLOAD,2024-04-08 21:25:51,15.08839019,0.000193,53.2207,50.8561,118.7134,241.4052,0.00013998,1.94e-05,0.0,0 STARLINK-3219,1 49724U 21115A   24099.89296053  .00001940  00000-0  13998-3 0  9999,2 49724  53.2207  50.8561 0001930 118.7134 241.4052 15.08839019130994,6917.883,95.438,541.084,538.413,0.0
49724.0,STARLINK-3219,PAYLOAD,2024-04-09 13:19:42,15.08844878,0.0001658,53.2212,47.8804,88.4215,271.6967,5.876e-05,6.47e-06,0.0,0 STARLINK-3219,1 49724U 21115A   24100.55535856  .00000647  00000-0  58760-4 0  9992,2 49724  53.2212  47.8804 0001658  88.4215 271.6967 15.08844878129982,6917.865,95.437,540.877,538.583,0.0
49724.0,STARLINK-3219,PAYLOAD,2024-04-09 19:41:15,15.08842074,0.0001528,53.2201,46.689,101.2263,258.8901,0.00011688,1.573e-05,0.0,0 STARLINK-3219,1 49724U 21115A   24100.82031831  .00001573  00000-0  11688-3 0  9992,2 49724  53.2201  46.6890 0001528 101.2263 258.8901 15.08842074130023,6917.874,95.437,540.796,538.682,0.0
49724.0,STARLINK-3219,PAYLOAD,2024-04-10 05:13:34,15.08839053,0.0001555,53.2206,44.9047,100.6041,259.5126,7.5977e-05,9.21e-06,0.0,0 STARLINK-3219,1 49724U 21115A   24101.21776200  .00000921  00000-0  75977-4 0  9990,2 49724  53.2206  44.9047 0001555 100.6041 259.5126 15.08839053131199,6917.883,95.438,540.824,538.673,0.0
49724.0,STARLINK-3219,PAYLOAD,2024-04-11 13:01:15,15.08862032,0.0001506,53.2201,38.957,83.524,276.5923,0.00021931,3.206e-05,0.0,0 STARLINK-3219,1 49724U 21115A   24102.54254166  .00003206  00000-0  21931-3 0  9998,2 49724  53.2201  38.9570 0001506  83.5240 276.5923 15.08862032131393,6917.813,95.436,540.72,538.636,0.0
49724.0,STARLINK-3219,PAYLOAD,2024-04-12 04:55:08,15.08838059,0.0001456,53.2191,35.9799,94.8392,265.2766,2.6951e-05,1.41e-06,0.0,0 STARLINK-3219,1 49724U 21115A   24103.20496282  .00000141  00000-0  26951-4 0  9992,2 49724  53.2191  35.9799 0001456  94.8392 265.2766 15.08838059131491,6917.886,95.438,540.759,538.744,0.0
49724.0,STARLINK-3219,PAYLOAD,2024-04-13 04:45:55,15.08846559,0.0001357,53.218,31.5203,97.9084,262.2062,9.8846e-05,1.286e-05,0.0,0 STARLINK-3219,1 49724U 21115A   24104.19855706  .00001286  00000-0  98846-4 0  9994,2 49724  53.2180  31.5203 0001357  97.9084 262.2062 15.08846559131640,6917.86,95.437,540.664,538.787,0.0
49724.0,STARLINK-3219,PAYLOAD,2024-04-14 04:36:43,15.08836856,0.0001448,53.2184,27.0584,94.2897,265.826,8.859e-05,1.122e-05,0.0,0 STARLINK-3219,1 49724U 21115A   24105.19216513  .00001122  00000-0  88590-4 0  9996,2 49724  53.2184  27.0584 0001448  94.2897 265.8260 15.08836856131793,6917.89,95.438,540.757,538.753,0.0
49724.0,STARLINK-3219,PAYLOAD,2024-04-14 22:05:57,15.08839993,0.0001582,53.2189,23.7866,112.3856,247.7304,0.00011652,1.567e-05,0.0,0 STARLINK-3219,1 49724U 21115A   24105.92080436  .00001567  00000-0  11652-3 0  9997,2 49724  53.2189  23.7866 0001582 112.3856 247.7304 15.08839993130792,6917.88,95.438,540.84,538.651,0.0
49724.0,STARLINK-3219,PAYLOAD,2024-04-15 04:27:29,15.08842421,0.0001517,53.2198,22.5968,109.5737,250.5419,9.5805e-05,1.237e-05,0.0,0 STARLINK-3219,1 49724U 21115A   24106.18576199  .00001237  00000-0  95805-4 0  9999,2 49724  53.2198  22.5968 0001517 109.5737 250.5419 15.08842421130830,6917.873,95.437,540.787,538.689,0.0
49724.0,STARLINK-3219,PAYLOAD,2024-04-15 21:56:44,15.08842253,0.0001456,53.2196,19.3263,111.5234,248.5914,0.00014093,1.956e-05,0.0,0 STARLINK-3219,1 49724U 21115A   24106.91440189  .00001956  00000-0  14093-3 0  9996,2 49724  53.2196  19.3263 0001456 111.5234 248.5914 15.08842253130949,6917.874,95.437,540.746,538.731,0.0
49724.0,STARLINK-3219,PAYLOAD,2024-04-15 23:32:07,15.08843142,0.0001482,53.2191,19.0289,112.0885,248.0264,0.00014946,2.092e-05,0.0,0 STARLINK-3219,1 49724U 21115A   24106.98064239  .00002092  00000-0  14946-3 0  9990,2 49724  53.2191  19.0289 0001482 112.0885 248.0264 15.08843142132062,6917.871,95.437,540.761,538.711,0.0
49724.0,STARLINK-3219,PAYLOAD,2024-04-16 21:47:30,15.08850835,0.0001341,53.2186,14.8663,108.6693,251.4445,0.00014357,1.998e-05,0.0,0 STARLINK-3219,1 49724U 21115A   24107.90799598  .00001998  00000-0  14357-3 0  9996,2 49724  53.2186  14.8663 0001341 108.6693 251.4445 15.08850835131095,6917.847,95.437,540.64,538.785,0.0
49724.0,STARLINK-3219,PAYLOAD,2024-04-17 02:33:39,15.08855716,0.0001344,53.2188,13.9744,108.0629,252.051,0.00020076,2.91e-05,0.0,0 STARLINK-3219,1 49724U 21115A   24108.10671222  .00002910  00000-0  20076-3 0  9992,2 49724  53.2188  13.9744 0001344 108.0629 252.0510 15.08855716132233,6917.832,95.437,540.627,538.768,0.0
49724.0,STARLINK-3219,PAYLOAD,2024-04-17 21:38:18,15.08833511,0.0001333,53.2179,10.4101,105.6282,254.4858,-8.3893e-05,-1.623e-05,0.0,0 STARLINK-3219,1 49724U 21115A   24108.90160575 -.00001623  00000-0 -83893-4 0  9993,2 49724  53.2179  10.4101 0001333 105.6282 254.4858 15.08833511131248,6917.9,95.438,540.687,538.843,0.0
49724.0,STARLINK-3219,PAYLOAD,2024-04-18 02:24:28,15.0882359,9.92e-05,53.2165,9.5164,111.4913,248.6185,-0.00030644,-5.159e-05,0.0,0 STARLINK-3219,1 49724U 21115A   24109.10032750 -.00005159  00000-0 -30644-3 0  9992,2 49724  53.2165   9.5164 0000992 111.4913 248.6185 15.08823590132387,6917.931,95.439,540.482,539.109,0.0
